NAVSTAR 77 (USA 289)    
1 43873U 18109A   24070.60519361  .00000040  00000+0  00000+0 0  9990
2 43873  55.2569 124.9242 0028373 194.6899 336.8564  2.00551343 38450
